[{"name":"ONEWEB-0693","l1":"1 61601U 24188H   26183.76226213  .00000007  00000+0 -15318-4 0  9995","l2":"2 61601  87.9127   2.7959 0001077  97.6675 262.4578 13.17649247 87932","cat":"starlink"},{"name":"ONEWEB-0695","l1":"1 61602U 24188J   26183.45183830  .00000497  00000+0  13659-2 0  9995","l2":"2 61602  87.8878  18.0368 0002334  93.8739 266.2656 13.11416509 86468","cat":"starlink"},{"name":"ONEWEB-0697","l1":"1 61603U 24188K   26183.78922769 -.00000347  00000+0 -10150-2 0  9993","l2":"2 61603  87.8876  17.9601 0002342 105.2123 254.9264 13.11415107 86494","cat":"starlink"},{"name":"ONEWEB-0698","l1":"1 61604U 24188L   26183.76719801  .00000465  00000+0  12757-2 0  9997","l2":"2 61604  87.8875  17.9782 0001850 125.6275 234.5026 13.11414869 86518","cat":"starlink"},{"name":"ONEWEB-0699","l1":"1 61605U 24188M   26183.56310006 -.00000156  00000+0 -48297-3 0  9998","l2":"2 61605  87.8818  33.2024 0002338 110.9532 249.1845 13.10376010 85324","cat":"starlink"},{"name":"ONEWEB-0700","l1":"1 61606U 24188N   26183.56480028  .00000542  00000+0  15162-2 0  9992","l2":"2 61606  87.8838  33.1136 0002347  97.4968 262.6426 13.10377353 85317","cat":"starlink"},{"name":"ONEWEB-0701","l1":"1 61607U 24188P   26183.58178219  .00000469  00000+0  13079-2 0  9994","l2":"2 61607  87.8819  33.1987 0002217 107.4514 252.6856 13.10369768 85324","cat":"starlink"},{"name":"ONEWEB-0702","l1":"1 61608U 24188Q   26183.43148477 -.00000119  00000+0 -37019-3 0  9997","l2":"2 61608  87.8897  17.9538 0002664 104.6979 255.4445 13.11418079 86487","cat":"starlink"},{"name":"ONEWEB-0704","l1":"1 61609U 24188R   26183.56989253  .00000672  00000+0  18899-2 0  9993","l2":"2 61609  87.8826  33.1908 0002718 100.3558 259.7876 13.10376974 85308","cat":"starlink"},{"name":"ONEWEB-0705","l1":"1 61610U 24188S   26183.34592593  .00000594  00000+0  16654-2 0  9998","l2":"2 61610  87.8826  33.2412 0002851  84.8362 275.3091 13.10370907 77447","cat":"starlink"},{"name":"ONEWEB-0706","l1":"1 61611U 24188T   26183.55972049  .00000360  00000+0  99616-3 0  9991","l2":"2 61611  87.8826  33.2029 0002399  92.3386 267.8016 13.10376789 85399","cat":"starlink"},{"name":"ONEWEB-0707","l1":"1 61612U 24188U   26183.56649750  .00000578  00000+0  16197-2 0  9996","l2":"2 61612  87.8828  33.1962 0002392  92.7039 267.4362 13.10377609 85335","cat":"starlink"},{"name":"ONEWEB-0708","l1":"1 61613U 24188V   26183.50882648  .00000265  00000+0  72169-3 0  9991","l2":"2 61613  87.8812  33.2248 0002246  75.6069 284.5307 13.10374328 85309","cat":"starlink"}]