OBJECT_NAME,OBJECT_ID,EPOCH,MEAN_MOTION,ECCENTRICITY,INCLINATION,RA_OF_ASC_NODE,ARG_OF_PERICENTER,MEAN_ANOMALY,EPHEMERIS_TYPE,CLASSIFICATION_TYPE,NORAD_CAT_ID,ELEMENT_SET_NO,REV_AT_EPOCH,BSTAR,MEAN_MOTION_DOT,MEAN_MOTION_DDOT
ONEWEB-0693,2024-188H,2026-07-02T18:17:39.448032,13.17649247,.0001077,87.9127,2.7959,97.6675,262.4578,0,U,61601,999,8793,-.15318E-4,.7E-7,0
ONEWEB-0695,2024-188J,2026-07-02T10:50:38.829120,13.11416509,.0002334,87.8878,18.0368,93.8739,266.2656,0,U,61602,999,8646,.13659E-2,.497E-5,0
ONEWEB-0697,2024-188K,2026-07-02T18:56:29.272416,13.11415107,.0002342,87.8876,17.9601,105.2123,254.9264,0,U,61603,999,8649,-.1015E-2,-.347E-5,0
ONEWEB-0698,2024-188L,2026-07-02T18:24:45.908064,13.11414869,.000185,87.8875,17.9782,125.6275,234.5026,0,U,61604,999,8651,.12757E-2,.465E-5,0
ONEWEB-0699,2024-188M,2026-07-02T13:30:51.845184,13.10376010,.0002338,87.8818,33.2024,110.9532,249.1845,0,U,61605,999,8532,-.48297E-3,-.156E-5,0
ONEWEB-0700,2024-188N,2026-07-02T13:33:18.744192,13.10377353,.0002347,87.8838,33.1136,97.4968,262.6426,0,U,61606,999,8531,.15162E-2,.542E-5,0
ONEWEB-0701,2024-188P,2026-07-02T13:57:45.981216,13.10369768,.0002217,87.8819,33.1987,107.4514,252.6856,0,U,61607,999,8532,.13079E-2,.469E-5,0
ONEWEB-0702,2024-188Q,2026-07-02T10:21:20.284128,13.11418079,.0002664,87.8897,17.9538,104.6979,255.4445,0,U,61608,999,8648,-.37019E-3,-.119E-5,0
ONEWEB-0704,2024-188R,2026-07-02T13:40:38.714592,13.10376974,.0002718,87.8826,33.1908,100.3558,259.7876,0,U,61609,999,8530,.18899E-2,.672E-5,0
ONEWEB-0705,2024-188S,2026-07-02T08:18:08.000352,13.10370907,.0002851,87.8826,33.2412,84.8362,275.3091,0,U,61610,999,7744,.16654E-2,.594E-5,0
ONEWEB-0706,2024-188T,2026-07-02T13:25:59.850336,13.10376789,.0002399,87.8826,33.2029,92.3386,267.8016,0,U,61611,999,8539,.99616E-3,.36E-5,0
ONEWEB-0707,2024-188U,2026-07-02T13:35:45.384000,13.10377609,.0002392,87.8828,33.1962,92.7039,267.4362,0,U,61612,999,8533,.16197E-2,.578E-5,0
ONEWEB-0708,2024-188V,2026-07-02T12:12:42.607872,13.10374328,.0002246,87.8812,33.2248,75.6069,284.5307,0,U,61613,999,8530,.72169E-3,.265E-5,0
